{"fetched_at":"2026-07-19T07:04:54.104Z","source":"https://celestrak.org/NORAD/elements/gp.php?GROUP=spire&FORMAT=JSON","constellation":"spire","records":[{"OBJECT_NAME":"LEMUR-1","OBJECT_ID":"2014-033AL","EPOCH":"2026-07-18T05:10:29.131680","CLASSIFICATION_TYPE":"U","MEAN_MOTION":14.85341695,"ECCENTRICITY":0.00474851,"INCLINATION":97.7913,"RA_OF_ASC_NODE":348.3393,"ARG_OF_PERICENTER":337.9146,"MEAN_ANOMALY":22.0022,"EPHEMERIS_TYPE":0,"NORAD_CAT_ID":40044,"ELEMENT_SET_NO":999,"REV_AT_EPOCH":65007,"BSTAR":0.000086804628,"MEAN_MOTION_DOT":0.00000705,"MEAN_MOTION_DDOT":0},{"OBJECT_NAME":"LEMUR-2-GREENBERG","OBJECT_ID":"2017-042N","EPOCH":"2026-07-18T01:13:36.647040","CLASSIFICATION_TYPE":"U","MEAN_MOTION":15.32207983,"ECCENTRICITY":0.00073229,"INCLINATION":97.3835,"RA_OF_ASC_NODE":19.5561,"ARG_OF_PERICENTER":247.3182,"MEAN_ANOMALY":112.7286,"EPHEMERIS_TYPE":0,"NORAD_CAT_ID":42837,"ELEMENT_SET_NO":999,"REV_AT_EPOCH":49311,"BSTAR":0.00031415728,"MEAN_MOTION_DOT":0.00009701,"MEAN_MOTION_DDOT":0},{"OBJECT_NAME":"LEMUR-2-ANDIS","OBJECT_ID":"2017-042P","EPOCH":"2026-07-18T01:43:45.666912","CLASSIFICATION_TYPE":"U","MEAN_MOTION":15.35996922,"ECCENTRICITY":0.00073243,"INCLINATION":97.3688,"RA_OF_ASC_NODE":19.8725,"ARG_OF_PERICENTER":246.368,"MEAN_ANOMALY":113.6795,"EPHEMERIS_TYPE":0,"NORAD_CAT_ID":42838,"ELEMENT_SET_NO":999,"REV_AT_EPOCH":49319,"BSTAR":0.00035542868,"MEAN_MOTION_DOT":0.00012392,"MEAN_MOTION_DDOT":0},{"OBJECT_NAME":"LEMUR-2-MONSON","OBJECT_ID":"2017-042Q","EPOCH":"2026-07-18T10:54:59.046048","CLASSIFICATION_TYPE":"U","MEAN_MOTION":15.2880414,"ECCENTRICITY":0.00055178,"INCLINATION":97.4097,"RA_OF_ASC_NODE":19.8815,"ARG_OF_PERICENTER":231.1425,"MEAN_ANOMALY":128.9323,"EPHEMERIS_TYPE":0,"NORAD_CAT_ID":42839,"ELEMENT_SET_NO":999,"REV_AT_EPOCH":49294,"BSTAR":0.00028173185,"MEAN_MOTION_DOT":0.00007815,"MEAN_MOTION_DDOT":0},{"OBJECT_NAME":"LEMUR-2-FURIAUS","OBJECT_ID":"2017-042R","EPOCH":"2026-07-18T10:59:35.649600","CLASSIFICATION_TYPE":"U","MEAN_MOTION":15.31195052,"ECCENTRICITY":0.00056947,"INCLINATION":97.3785,"RA_OF_ASC_NODE":17.8461,"ARG_OF_PERICENTER":315.332,"MEAN_ANOMALY":44.7462,"EPHEMERIS_TYPE":0,"NORAD_CAT_ID":42840,"ELEMENT_SET_NO":999,"REV_AT_EPOCH":49299,"BSTAR":0.00031588602,"MEAN_MOTION_DOT":0.00009448,"MEAN_MOTION_DDOT":0},{"OBJECT_NAME":"LEMUR-2-PETERG","OBJECT_ID":"2017-042S","EPOCH":"2026-07-18T18:59:57.999264","CLASSIFICATION_TYPE":"U","MEAN_MOTION":15.35108847,"ECCENTRICITY":0.0003567,"INCLINATION":97.4,"RA_OF_ASC_NODE":24.9034,"ARG_OF_PERICENTER":205.0098,"MEAN_ANOMALY":155.0973,"EPHEMERIS_TYPE":0,"NORAD_CAT_ID":42841,"ELEMENT_SET_NO":999,"REV_AT_EPOCH":49328,"BSTAR":0.00032428,"MEAN_MOTION_DOT":0.00010973,"MEAN_MOTION_DDOT":0},{"OBJECT_NAME":"LEMUR-2-DEMBITZ","OBJECT_ID":"2017-042T","EPOCH":"2026-07-18T17:44:31.427232","CLASSIFICATION_TYPE":"U","MEAN_MOTION":15.31174001,"ECCENTRICITY":0.0005122,"INCLINATION":97.3837,"RA_OF_ASC_NODE":21.1724,"ARG_OF_PERICENTER":257.8927,"MEAN_ANOMALY":102.1741,"EPHEMERIS_TYPE":0,"NORAD_CAT_ID":42842,"ELEMENT_SET_NO":999,"REV_AT_EPOCH":49317,"BSTAR":0.00028055,"MEAN_MOTION_DOT":0.00008375,"MEAN_MOTION_DDOT":0},{"OBJECT_NAME":"LEMUR-2-ZACHARY","OBJECT_ID":"2017-042W","EPOCH":"2026-07-18T20:30:07.683840","CLASSIFICATION_TYPE":"U","MEAN_MOTION":15.52943415,"ECCENTRICITY":0.0002816,"INCLINATION":97.3577,"RA_OF_ASC_NODE":32.2256,"ARG_OF_PERICENTER":227.5317,"MEAN_ANOMALY":132.5698,"EPHEMERIS_TYPE":0,"NORAD_CAT_ID":42845,"ELEMENT_SET_NO":999,"REV_AT_EPOCH":49411,"BSTAR":0.00047386,"MEAN_MOTION_DOT":0.00029457,"MEAN_MOTION_DDOT":0},{"OBJECT_NAME":"LEMUR-2-AMANDA-SVANTE","OBJECT_ID":"2021-034B","EPOCH":"2026-07-18T18:33:21.707424","CLASSIFICATION_TYPE":"U","MEAN_MOTION":15.36094086,"ECCENTRICITY":0.0004767,"INCLINATION":97.5742,"RA_OF_ASC_NODE":278.9334,"ARG_OF_PERICENTER":134.6151,"MEAN_ANOMALY":225.5482,"EPHEMERIS_TYPE":0,"NORAD_CAT_ID":48269,"ELEMENT_SET_NO":999,"REV_AT_EPOCH":28590,"BSTAR":0.00050629,"MEAN_MOTION_DOT":0.00017742,"MEAN_MOTION_DDOT":0},{"OBJECT_NAME":"LEMUR-2-SPECIAL-K","OBJECT_ID":"2021-034F","EPOCH":"2026-07-18T04:36:33.362784","CLASSIFICATION_TYPE":"U","MEAN_MOTION":15.75793092,"ECCENTRICITY":0.00061284,"INCLINATION":97.5639,"RA_OF_ASC_NODE":288.5518,"ARG_OF_PERICENTER":212.7149,"MEAN_ANOMALY":147.3737,"EPHEMERIS_TYPE":0,"NORAD_CAT_ID":48273,"ELEMENT_SET_NO":999,"REV_AT_EPOCH":28655,"BSTAR":0.0011690989,"MEAN_MOTION_DOT":0.0018292,"MEAN_MOTION_DDOT":0},{"OBJECT_NAME":"LEMUR-2-EMBRIONOVIS","OBJECT_ID":"2023-084AQ","EPOCH":"2026-07-18T19:44:51.184032","CLASSIFICATION_TYPE":"U","MEAN_MOTION":15.38288175,"ECCENTRICITY":0.0008656,"INCLINATION":97.6331,"RA_OF_ASC_NODE":345.2609,"ARG_OF_PERICENTER":192.7646,"MEAN_ANOMALY":167.338,"EPHEMERIS_TYPE":0,"NORAD_CAT_ID":56970,"ELEMENT_SET_NO":999,"REV_AT_EPOCH":17254,"BSTAR":0.00020904,"MEAN_MOTION_DOT":0.00007808,"MEAN_MOTION_DDOT":0},{"OBJECT_NAME":"LEMUR-2-DEVERILL-M-T","OBJECT_ID":"2023-100F","EPOCH":"2026-07-18T20:48:05.413248","CLASSIFICATION_TYPE":"U","MEAN_MOTION":15.41202904,"ECCENTRICITY":0.000478,"INCLINATION":99.4446,"RA_OF_ASC_NODE":247.8136,"ARG_OF_PERICENTER":281.372,"MEAN_ANOMALY":78.6983,"EPHEMERIS_TYPE":0,"NORAD_CAT_ID":57391,"ELEMENT_SET_NO":999,"REV_AT_EPOCH":16612,"BSTAR":0.00037138,"MEAN_MOTION_DOT":0.00015314,"MEAN_MOTION_DDOT":0},{"OBJECT_NAME":"LEMUR-2-BASS","OBJECT_ID":"2023-174D","EPOCH":"2026-07-18T18:43:28.219008","CLASSIFICATION_TYPE":"U","MEAN_MOTION":15.44067453,"ECCENTRICITY":0.0007428,"INCLINATION":97.384,"RA_OF_ASC_NODE":284.9557,"ARG_OF_PERICENTER":67.4696,"MEAN_ANOMALY":292.7337,"EPHEMERIS_TYPE":0,"NORAD_CAT_ID":58259,"ELEMENT_SET_NO":999,"REV_AT_EPOCH":15023,"BSTAR":0.00021659,"MEAN_MOTION_DOT":0.00009815,"MEAN_MOTION_DDOT":0},{"OBJECT_NAME":"LEMUR-2-JK0903EM1407","OBJECT_ID":"2023-174CJ","EPOCH":"2026-07-18T18:59:33.784800","CLASSIFICATION_TYPE":"U","MEAN_MOTION":15.53187728,"ECCENTRICITY":0.0003255,"INCLINATION":97.3918,"RA_OF_ASC_NODE":291.1881,"ARG_OF_PERICENTER":18.9836,"MEAN_ANOMALY":341.1537,"EPHEMERIS_TYPE":0,"NORAD_CAT_ID":58336,"ELEMENT_SET_NO":999,"REV_AT_EPOCH":15063,"BSTAR":0.00026446,"MEAN_MOTION_DOT":0.00016516,"MEAN_MOTION_DDOT":0},{"OBJECT_NAME":"LEMUR-2-MJR092620","OBJECT_ID":"2023-174CN","EPOCH":"2026-07-18T18:08:41.769600","CLASSIFICATION_TYPE":"U","MEAN_MOTION":15.45941359,"ECCENTRICITY":0.0004969,"INCLINATION":97.3969,"RA_OF_ASC_NODE":290.3915,"ARG_OF_PERICENTER":17.5826,"MEAN_ANOMALY":342.5595,"EPHEMERIS_TYPE":0,"NORAD_CAT_ID":58340,"ELEMENT_SET_NO":999,"REV_AT_EPOCH":15052,"BSTAR":0.00021387,"MEAN_MOTION_DOT":0.00010325,"MEAN_MOTION_DDOT":0},{"OBJECT_NAME":"LEMUR-2-NIMBUS2000","OBJECT_ID":"2024-022A","EPOCH":"2026-07-18T20:08:58.309728","CLASSIFICATION_TYPE":"U","MEAN_MOTION":15.41208925,"ECCENTRICITY":0.0008366,"INCLINATION":97.4079,"RA_OF_ASC_NODE":50.2613,"ARG_OF_PERICENTER":16.032,"MEAN_ANOMALY":344.119,"EPHEMERIS_TYPE":0,"NORAD_CAT_ID":58899,"ELEMENT_SET_NO":999,"REV_AT_EPOCH":13714,"BSTAR":0.00029326,"MEAN_MOTION_DOT":0.00012108,"MEAN_MOTION_DDOT":0}]}
